{
  "norad_id": 68196,
  "name": "YAOGAN-50 02",
  "history": [
    {
      "epoch": "2026-03-28T22:18:39.312288Z",
      "apogee_km": 952.9105457714313,
      "perigee_km": 951.7353264344756,
      "latitude_deg": 2.992837055128497e-05,
      "longitude_deg": 139.00134784223303,
      "height_km": 951.7115013891372,
      "semi_major_axis_km": 7330.459936102953,
      "eccentricity": 8.016e-05,
      "inclination_deg": 141.9883,
      "raan_deg": 300.0082,
      "arg_perigee_deg": 258.9832,
      "mean_anomaly_deg": 101.0798,
      "mean_motion_rev_day": 13.8326671
    },
    {
      "epoch": "2026-03-29T05:14:31.431840Z",
      "apogee_km": 952.8922551011892,
      "perigee_km": 951.756033623813,
      "latitude_deg": 1.436780928374239e-05,
      "longitude_deg": 36.14335094851769,
      "height_km": 951.6800369115545,
      "semi_major_axis_km": 7330.461144362501,
      "eccentricity": 7.75e-05,
      "inclination_deg": 141.987,
      "raan_deg": 301.402,
      "arg_perigee_deg": 261.9564,
      "mean_anomaly_deg": 98.1068,
      "mean_motion_rev_day": 13.83266368
    },
    {
      "epoch": "2026-03-30T03:46:05.657952Z",
      "apogee_km": 952.9165181484977,
      "perigee_km": 951.7333815897882,
      "latitude_deg": -1.7417061345324958e-05,
      "longitude_deg": 61.858766088335116,
      "height_km": 951.6202130262632,
      "semi_major_axis_km": 7330.461949869143,
      "eccentricity": 8.07e-05,
      "inclination_deg": 141.9867,
      "raan_deg": 305.9351,
      "arg_perigee_deg": 268.18,
      "mean_anomaly_deg": 91.8827,
      "mean_motion_rev_day": 13.8326614
    },
    {
      "epoch": "2026-03-30T05:30:03.673152Z",
      "apogee_km": 952.9165622946603,
      "perigee_km": 951.7331325340137,
      "latitude_deg": 4.7858283499506106e-05,
      "longitude_deg": 36.14439027064482,
      "height_km": 951.6113732409584,
      "semi_major_axis_km": 7330.461847414337,
      "eccentricity": 8.072e-05,
      "inclination_deg": 141.9866,
      "raan_deg": 306.2837,
      "arg_perigee_deg": 269.0272,
      "mean_anomaly_deg": 91.0356,
      "mean_motion_rev_day": 13.83266169
    },
    {
      "epoch": "2026-03-30T14:09:53.749152Z",
      "apogee_km": 952.9104859327945,
      "perigee_km": 951.738784944987,
      "latitude_deg": -9.13467847685969e-06,
      "longitude_deg": -92.42690092011122,
      "height_km": 951.6134076316956,
      "semi_major_axis_km": 7330.461635438891,
      "eccentricity": 7.992e-05,
      "inclination_deg": 141.9868,
      "raan_deg": 308.0268,
      "arg_perigee_deg": 268.7957,
      "mean_anomaly_deg": 91.2671,
      "mean_motion_rev_day": 13.83266229
    },
    {
      "epoch": "2026-03-30T22:49:43.812192Z",
      "apogee_km": 952.9082072784058,
      "perigee_km": 951.7406113851266,
      "latitude_deg": 3.2807285314471376e-05,
      "longitude_deg": 139.00243612654054,
      "height_km": 951.6137037535794,
      "semi_major_axis_km": 7330.461409331766,
      "eccentricity": 7.964e-05,
      "inclination_deg": 141.9868,
      "raan_deg": 309.7706,
      "arg_perigee_deg": 268.7395,
      "mean_anomaly_deg": 91.3234,
      "mean_motion_rev_day": 13.83266293
    },
    {
      "epoch": "2026-03-31T19:37:20.351424Z",
      "apogee_km": 952.8965146604442,
      "perigee_km": 951.7925441421157,
      "latitude_deg": 3.398603997052891e-05,
      "longitude_deg": -169.5708689758344,
      "height_km": 951.5366448695316,
      "semi_major_axis_km": 7330.48152940128,
      "eccentricity": 7.53e-05,
      "inclination_deg": 141.986,
      "raan_deg": 313.9535,
      "arg_perigee_deg": 278.7946,
      "mean_anomaly_deg": 81.2689,
      "mean_motion_rev_day": 13.83260598
    },
    {
      "epoch": "2026-04-01T23:20:49.048224Z",
      "apogee_km": 952.8722005920099,
      "perigee_km": 951.8195432516022,
      "latitude_deg": -3.6336449628716224e-06,
      "longitude_deg": 138.99899993177158,
      "height_km": 951.5575099953792,
      "semi_major_axis_km": 7330.482871921806,
      "eccentricity": 7.18e-05,
      "inclination_deg": 141.9868,
      "raan_deg": 319.5315,
      "arg_perigee_deg": 277.0683,
      "mean_anomaly_deg": 82.9955,
      "mean_motion_rev_day": 13.83260218
    },
    {
      "epoch": "2026-04-02T20:08:25.526976Z",
      "apogee_km": 952.8789198301774,
      "perigee_km": 951.8116016130152,
      "latitude_deg": -3.0502618919078816e-05,
      "longitude_deg": -169.57251737213107,
      "height_km": 951.5851201467239,
      "semi_major_axis_km": 7330.482260721596,
      "eccentricity": 7.28e-05,
      "inclination_deg": 141.9862,
      "raan_deg": 323.7159,
      "arg_perigee_deg": 273.9342,
      "mean_anomaly_deg": 86.1294,
      "mean_motion_rev_day": 13.83260391
    },
    {
      "epoch": "2026-04-02T21:52:23.558592Z",
      "apogee_km": 952.8871184780928,
      "perigee_km": 951.803233383559,
      "latitude_deg": -6.101660088030231e-06,
      "longitude_deg": 164.71329020935735,
      "height_km": 951.5958331998678,
      "semi_major_axis_km": 7330.482175930825,
      "eccentricity": 7.393e-05,
      "inclination_deg": 141.9861,
      "raan_deg": 324.0647,
      "arg_perigee_deg": 272.7321,
      "mean_anomaly_deg": 87.3314,
      "mean_motion_rev_day": 13.83260415
    },
    {
      "epoch": "2026-04-03T15:12:03.942144Z",
      "apogee_km": 952.8794142949391,
      "perigee_km": 951.8091640267212,
      "latitude_deg": -4.376812015797515e-06,
      "longitude_deg": -92.42940769380138,
      "height_km": 951.6170643260598,
      "semi_major_axis_km": 7330.48128916083,
      "eccentricity": 7.3e-05,
      "inclination_deg": 141.986,
      "raan_deg": 327.5519,
      "arg_perigee_deg": 270.3976,
      "mean_anomaly_deg": 89.666,
      "mean_motion_rev_day": 13.83260666
    },
    {
      "epoch": "2026-04-04T15:27:36.479808Z",
      "apogee_km": 952.8732300637057,
      "perigee_km": 951.8132426215307,
      "latitude_deg": 7.485638393789967e-06,
      "longitude_deg": -92.42948032917853,
      "height_km": 951.6130989956388,
      "semi_major_axis_km": 7330.480236342618,
      "eccentricity": 7.23e-05,
      "inclination_deg": 141.9859,
      "raan_deg": 332.4337,
      "arg_perigee_deg": 270.7167,
      "mean_anomaly_deg": 89.347,
      "mean_motion_rev_day": 13.83260964
    },
    {
      "epoch": "2026-04-05T13:59:10.965984Z",
      "apogee_km": 952.8701767775756,
      "perigee_km": 951.8147343455639,
      "latitude_deg": 4.7826436022763684e-05,
      "longitude_deg": -66.71544550684388,
      "height_km": 951.6196299138583,
      "semi_major_axis_km": 7330.47945556157,
      "eccentricity": 7.199e-05,
      "inclination_deg": 141.9859,
      "raan_deg": 336.9666,
      "arg_perigee_deg": 269.925,
      "mean_anomaly_deg": 90.1388,
      "mean_motion_rev_day": 13.83261185
    },
    {
      "epoch": "2026-04-05T20:55:03.116640Z",
      "apogee_km": 952.868653258115,
      "perigee_km": 951.8159964270681,
      "latitude_deg": 3.422162093269554e-05,
      "longitude_deg": -169.57267544769843,
      "height_km": 951.6226200670338,
      "semi_major_axis_km": 7330.479324842591,
      "eccentricity": 7.18e-05,
      "inclination_deg": 141.9859,
      "raan_deg": 338.3613,
      "arg_perigee_deg": 269.585,
      "mean_anomaly_deg": 90.4788,
      "mean_motion_rev_day": 13.83261222
    },
    {
      "epoch": "2026-04-06T07:18:51.333984Z",
      "apogee_km": 952.8652794167256,
      "perigee_km": 951.8184870322011,
      "latitude_deg": 5.874684934278589e-06,
      "longitude_deg": 36.141575633488,
      "height_km": 951.6214959251431,
      "semi_major_axis_km": 7330.478883224463,
      "eccentricity": 7.14e-05,
      "inclination_deg": 141.9859,
      "raan_deg": 340.4534,
      "arg_perigee_deg": 269.6574,
      "mean_anomaly_deg": 90.4064,
      "mean_motion_rev_day": 13.83261347
    },
    {
      "epoch": "2026-04-07T16:14:14.013312Z",
      "apogee_km": 952.8650267027151,
      "perigee_km": 951.8167683633674,
      "latitude_deg": -5.0432184721558044e-05,
      "longitude_deg": -92.43005180680024,
      "height_km": 951.6300819096596,
      "semi_major_axis_km": 7330.477897533041,
      "eccentricity": 7.15e-05,
      "inclination_deg": 141.9858,
      "raan_deg": 347.0783,
      "arg_perigee_deg": 268.6131,
      "mean_anomaly_deg": 91.4506,
      "mean_motion_rev_day": 13.83261626
    }
  ]
}